STARLINK-30580
1 58115U 23161U   25355.50123696  .00000735  00000+0  36958-4 0  9994
2 58115  53.1620 168.4766 0001273  81.2162 278.8983 15.30199261122456